const data = [
"1 41917U 17003A   22076.81570530  .00000176  00000+0  55740-4 0  9997",
"2 41917  86.4022  17.2196 0002098  76.3906 283.7524 14.34213505270707",
"1 41918U 17003B   22077.29141873  .00000180  00000+0  57122-4 0  9996",
"2 41918  86.4024  16.9260 0002488  85.2349 274.9131 14.34217233270800",
"1 41919U 17003C   22076.87914824  .00000179  00000+0  56808-4 0  9992",
"2 41919  86.4024  17.1318 0002249  84.2894 275.8558 14.34216110270702",
"1 41920U 17003D   22076.91720436  .00000185  00000+0  58884-4 0  9996",
"2 41920  86.4023  17.0725 0002183  91.0681 269.0764 14.34217073270793",
"1 41921U 17003E   22077.23681073  .00000208  00000+0  67169-4 0  9998",
"2 41921  86.4022 345.3729 0002257  71.4423 288.7018 14.34218886272696",
"1 41922U 17003F   22076.92987767  .00000179  00000+0  56813-4 0  9994",
"2 41922  86.4025  17.0866 0002204  77.4885 282.6557 14.34221711270785",
"1 41923U 17003G   22076.93623284  .00000179  00000+0  56939-4 0  9996",
"2 41923  86.4024  17.0719 0001852  85.1324 275.0083 14.34217039270760",
"1 41924U 17003H   22077.17382419  .00000206  00000+0  66366-4 0  9992",
"2 41924  86.4016 345.3780 0001968  76.8409 283.3006 14.34217230272678",
"1 41925U 17003J   22076.92353944  .00000189  00000+0  60414-4 0  9994",
"2 41925  86.4020  16.9921 0001960  91.7060 268.4360 14.34215609270788",
"1 41926U 17003K   22076.91085267  .00000177  00000+0  56188-4 0  9994",
"2 41926  86.4022  17.0341 0002446  84.1110 276.0365 14.34221670270764",
"1 42803U 17039A   22076.40243447  .00002139  00000+0  75664-3 0  9997",
"2 42803  86.3939 250.9497 0002355  88.4907 271.6558 14.34217946248621",
"1 42804U 17039B   22076.93229067  .00000052  00000+0  11479-4 0  9995",
"2 42804  86.3920 282.2933 0002267  92.1854 267.9601 14.34219404247469",
"1 42805U 17039C   22077.02401700  .00000049  00000+0  10574-4 0  9994",
"2 42805  86.3932 250.6734 0002339  86.7403 273.4060 14.34218030248703",
"1 42806U 17039D   22076.93964026  .00000071  00000+0  14980-4 0  9999",
"2 42806  86.4471 250.6048 0004001 103.7358 256.4288 14.43282469250374",
"1 42807U 17039E   22076.61514841  .00000056  00000+0  12755-4 0  9992",
"2 42807  86.3920 282.4309 0002089  97.3231 262.8202 14.34218964247415",
"1 42808U 17039F   22076.56441008  .00000061  00000+0  14883-4 0  9991",
"2 42808  86.3920 282.4234 0002209  79.8212 280.3233 14.34216985247433",
"1 42809U 17039G   22076.93863744  .00000052  00000+0  11405-4 0  9995",
"2 42809  86.3920 282.2935 0002195  88.5537 271.5911 14.34217063247467",
"1 42810U 17039H   22076.94285578  .00000247  00000+0  67411-4 0  9995",
"2 42810  86.4529 219.0288 0001817  86.4701 273.6708 14.43274606251226",
"1 42811U 17039J   22077.20845020  .00000197  00000+0  63319-4 0  9997",
"2 42811  86.3962 313.7421 0002575  83.7140 276.4349 14.34216051247538",
"1 42812U 17039K   22076.60882381  .00000058  00000+0  13687-4 0  9991",
"2 42812  86.3921 282.4503 0002259  90.2422 269.9033 14.34219596247299",
"1 42955U 17061A   22076.61225511  .00000183  00000+0  58136-4 0  9998",
"2 42955  86.3965 314.0718 0002371  85.7575 274.3892 14.34220738232240",
"1 42956U 17061B   22077.16405882  .00000182  00000+0  57842-4 0  9993",
"2 42956  86.3962 313.7966 0002082  83.9802 276.1631 14.34216800232348",
"1 42957U 17061C   22077.20209982  .00000053  00000+0  12009-4 0  9995",
"2 42957  86.3963 313.7774 0002511  84.1654 275.9828 14.34217289232338",
"1 42958U 17061D   22076.73909684  .00000182  00000+0  57881-4 0  9999",
"2 42958  86.3964 314.0213 0002436  86.1645 273.9829 14.34215460232282",
"1 42959U 17061E   22077.19577514  .00000176  00000+0  55790-4 0  9994",
"2 42959  86.3964 313.8183 0002371  87.6578 272.4889 14.34215956232364",
"1 42960U 17061F   22076.72641046  .00000195  00000+0  62639-4 0  9997",
"2 42960  86.3966 314.0262 0002175  84.1264 276.0179 14.34215874232300",
"1 42961U 17061G   22077.01182462  .00000190  00000+0  60809-4 0  9995",
"2 42961  86.3964 313.8961 0002282  76.5854 283.5596 14.34214796232343",
"1 42962U 17061H   22077.18309126  .00000177  00000+0  56154-4 0  9995",
"2 42962  86.3964 313.8249 0002353  89.8521 270.2944 14.34215969232387",
"1 42963U 17061J   22077.18942682  .00000177  00000+0  56248-4 0  9990",
"2 42963  86.3966 313.8596 0002299  83.2409 276.9048 14.34221642232391",
"1 42964U 17061K   22077.17675378  .00000181  00000+0  57537-4 0  9992",
"2 42964  86.3968 313.8977 0002218  81.9725 278.1722 14.34221627232402",
"1 43070U 17083A   22076.94155049  .00000064  00000+0  15899-4 0  9992",
"2 43070  86.3935 250.6628 0001664  90.8975 269.2411 14.34215534221668",
"1 43071U 17083B   22076.40877557  .00000063  00000+0  15283-4 0  9995",
"2 43071  86.3926 250.7058 0002279  91.6334 268.5122 14.34218719221577",
"1 43072U 17083C   22076.93521010 -.00000002  00000+0 -77507-5 0  9997",
"2 43072  86.3940 250.6699 0001872 100.4075 259.7332 14.34215684221688",
"1 43073U 17083D   22076.90350067  .00000060  00000+0  14521-4 0  9995",
"2 43073  86.3945 250.8065 0002292  94.2418 265.9040 14.34218359221622",
"1 43074U 17083E   22076.38974228  .00000030  00000+0  37962-5 0  9991",
"2 43074  86.3937 250.9201 0002069  99.7175 260.4255 14.34217470221574",
"1 43075U 17083F   22076.98593084  .00000056  00000+0  12790-4 0  9994",
"2 43075  86.3940 250.6571 0002060  84.1365 276.0065 14.34217762221628",
"1 43076U 17083G   22076.23117170  .00000067  00000+0  16977-4 0  9994",
"2 43076  86.3940 251.0366 0002035 101.1710 258.9715 14.34217529221589",
"1 43077U 17083H   22076.92252449  .00000047  00000+0  97910-5 0  9995",
"2 43077  86.3936 250.6642 0002230  93.8549 266.2901 14.34216482221688",
"1 43078U 17083J   22076.94447907  .00000186  00000+0  59295-4 0  9990",
"2 43078  86.4004 219.0989 0002650  95.5344 264.6154 14.34215687222798",
"1 43079U 17083K   22076.97961132  .00000059  00000+0  14142-4 0  9996",
"2 43079  86.3942 250.7224 0002298  90.9456 269.2003 14.34218539221628",
"1 43249U 18030A   22076.81126994  .00000174  00000+0  55031-4 0  9990",
"2 43249  86.4001 219.1269 0001929  85.4782 274.6634 14.34222047207637",
"1 43250U 18030B   22076.81762930  .00000175  00000+0  55317-4 0  9996",
"2 43250  86.4000 219.1080 0001764  88.0355 272.1043 14.34216389207652",
"1 43251U 18030C   22076.90642506  .00000183  00000+0  58330-4 0  9990",
"2 43251  86.4002 219.0897 0002259 102.4152 257.7297 14.34215945207642",
"1 43252U 18030D   22076.92545276  .00000165  00000+0  51910-4 0  9996",
"2 43252  86.4002 219.0965 0001816  76.4202 283.7196 14.34216185207704",
"1 43253U 18030E   22076.91276045  .00000150  00000+0  46634-4 0  9992",
"2 43253  86.4001 219.0788 0001044  89.3510 270.7805 14.34216228207638",
"1 43254U 18030F   22076.82396244  .00000017  00000+0 -82672-6 0  9994",
"2 43254  86.4003 219.1323 0001660  97.6233 262.5152 14.34213575207631",
"1 43255U 18030G   22076.93178450  .00000203  00000+0  65524-4 0  9995",
"2 43255  86.4002 219.1077 0001960 101.8252 258.3163 14.34213078207687",
"1 43256U 18030H   22076.90008802  .00000171  00000+0  54137-4 0  9998",
"2 43256  86.4000 219.0671 0001971  96.0155 264.1265 14.34217312207643",
"1 43257U 18030J   22076.93814454  .00000170  00000+0  53706-4 0  9990",
"2 43257  86.4003 219.1172 0001992  89.6760 270.4664 14.34217062207675",
"1 43258U 18030K   22076.91910339  .00000170  00000+0  53609-4 0  9990",
"2 43258  86.4006 219.1542 0001582  92.9863 267.1513 14.34213770207607",
"1 43478U 18047C   22077.19828912  .00000228  00000+0  61744-4 0  9991",
"2 43478  86.4545  17.0564 0002503  79.3707 280.7776 14.43277723201286",
"1 43479U 18047D   22076.82206594  .00000179  00000+0  57009-4 0  9991",
"2 43479  86.4019  17.0792 0001899  89.3911 270.7503 14.34216907199988",
"1 43480U 18047E   22076.82837855  .00000180  00000+0  57190-4 0  9996",
"2 43480  86.4020  17.0549 0002293  89.7055 270.4404 14.34223606199985",
"1 43481U 18047F   22077.32312312  .00000192  00000+0  61512-4 0  9995",
"2 43481  86.4022  16.8992 0002191  77.2157 282.9283 14.34216402200048",
"1 43482U 18047G   22077.19191199  .00000228  00000+0  61868-4 0  9993",
"2 43482  86.4544  16.9706 0002106  82.4058 277.7382 14.43277465201270",
"1 43569U 18061A   22077.19919945  .00000187  00000+0  59810-4 0  9990",
"2 43569  86.4019 345.3525 0002079  92.4669 267.6765 14.34216277190925",
"1 43570U 18061B   22077.15478453  .00000203  00000+0  65320-4 0  9994",
"2 43570  86.4019 345.3432 0001985  78.5465 281.5954 14.34213767190946",
"1 43571U 18061C   22077.19285431  .00000100  00000+0  28671-4 0  9995",
"2 43571  86.4020 345.3351 0001848  87.5668 272.5739 14.34221092190921",
"1 43572U 18061D   22076.79960830  .00000193  00000+0  61872-4 0  9996",
"2 43572  86.4020 345.5169 0001833  84.8769 275.2636 14.34217181190882",
"1 43573U 18061E   22077.18016686  .00000192  00000+0  61497-4 0  9994",
"2 43573  86.4015 345.3021 0002362  77.3419 282.8041 14.34215056190916",
"1 43574U 18061F   22077.23090914  .00000196  00000+0  62782-4 0  9999",
"2 43574  86.4020 345.3402 0002106  92.4614 267.6823 14.34217368190969",
"1 43575U 18061G   22077.21186364  .00000075  00000+0  19552-4 0  9996",
"2 43575  86.4019 345.3111 0001677  84.5887 275.5500 14.34213375190932",
"1 43576U 18061H   22077.18650927  .00000198  00000+0  63527-4 0  9991",
"2 43576  86.4017 345.3268 0001958  76.5800 283.5614 14.34217207190913",
"1 43577U 18061J   22077.23724167  .00000191  00000+0  61013-4 0  9997",
"2 43577  86.4020 345.3220 0001983  88.4026 271.7397 14.34213258190971",
"1 43578U 18061K   22076.78693744  .00000199  00000+0  63855-4 0  9997",
"2 43578  86.4017 345.4798 0002046  90.2988 269.8442 14.34218796190878",
"1 43922U 19002A   22076.92595434  .00000058  00000+0  13473-4 0  9994",
"2 43922  86.3919 282.2691 0001859 111.2433 248.8961 14.34219369166504",
"1 43923U 19002B   22077.11629429  .00000181  00000+0  24728-4 0  9991",
"2 43923  86.6054 282.2241 0002467  88.5144 271.6356 14.72257118170895",
"1 43924U 19002C   22076.91959981  .00000054  00000+0  12124-4 0  9994",
"2 43924  86.3921 282.3052 0002085  96.8772 263.2661 14.34217810166481",
"1 43925U 19002D   22076.62784019  .00000056  00000+0  12806-4 0  9990",
"2 43925  86.3919 282.3795 0002006  94.6476 265.4949 14.34217709166427",
"1 43926U 19002E   22077.18469692  .00000205  00000+0  60371-4 0  9996",
"2 43926  86.4220 313.7695 0006521  63.0210 297.1654 14.38604283167094",
"1 43927U 19002F   22077.10988575  .00000043  00000+0  84354-5 0  9993",
"2 43927  86.3918 282.1809 0001997  97.6323 262.5100 14.34217608166508",
"1 43928U 19002G   22077.11009112  .00000173  00000+0  23474-4 0  9995",
"2 43928  86.6056 282.0543 0002092  97.4407 262.7048 14.72256785170887",
"1 43929U 19002H   22076.60247022  .00000053  00000+0  11805-4 0  9995",
"2 43929  86.3928 282.5273 0002111  96.6766 263.4670 14.34218576166427",
"1 43930U 19002J   22076.64672430  .00000192  00000+0  26572-4 0  9997",
"2 43930  86.6054 282.4264 0002423  92.0751 268.0744 14.72256253170830",
"1 43931U 19002K   22076.94495535  .00000051  00000+0  11313-4 0  9991",
"2 43931  86.3919 282.2586 0001991 104.0130 256.1287 14.34216407166477",
];

export default data;
